[{"OBJECT_NAME":"HAWK-11C","OBJECT_ID":"2024-247E","EPOCH":"2026-03-09T12:17:35.407968","MEAN_MOTION":15.2884802,"ECCENTRICITY":0.00059001,"INCLINATION":45.0045,"RA_OF_ASC_NODE":114.8762,"ARG_OF_PERICENTER":329.704,"MEAN_ANOMALY":30.3502,"EPHEMERIS_TYPE":0,"CLASSIFICATION_TYPE":"U","NORAD_CAT_ID":62381,"ELEMENT_SET_NO":999,"REV_AT_EPOCH":6774,"BSTAR":0.00033290115,"MEAN_MOTION_DOT":9.223e-5,"MEAN_MOTION_DDOT":0},{"OBJECT_NAME":"STARLINK-34857","OBJECT_ID":"2025-167AA","EPOCH":"2026-03-09T04:13:24.070656","MEAN_MOTION":15.30200552,"ECCENTRICITY":0.00012205,"INCLINATION":53.1599,"RA_OF_ASC_NODE":28.8656,"ARG_OF_PERICENTER":62.4752,"MEAN_ANOMALY":297.6373,"EPHEMERIS_TYPE":0,"CLASSIFICATION_TYPE":"U","NORAD_CAT_ID":65102,"ELEMENT_SET_NO":999,"REV_AT_EPOCH":3340,"BSTAR":0.00088164537,"MEAN_MOTION_DOT":0.00025844,"MEAN_MOTION_DDOT":0}]
