HAWK-11C                
1 62381U 24247E   26068.51221537  .00009223  00000+0  33290-3 0  9992
2 62381  45.0045 114.8762 0005900 329.7040  30.3502 15.28848020 67743
STARLINK-34857          
1 65102U 25167AA  26068.17597304  .00025844  00000+0  88165-3 0  9996
2 65102  53.1599  28.8656 0001220  62.4752 297.6373 15.30200552 33404
